{"type": "FeatureCollection", "features": [ {"type": "Feature", "properties": {"norad_id": 37993, "name": "COSMOS 2251 DEB", "group": "cosmos-2251-debris", "lat": 42.85034901482721, "lon": -155.57652189243635, "alt_km": 699.7480626568331, "timestamp": "2025-12-01T03:58:49.149331+00:00", "meta": {"OBJECT_NAME": "COSMOS 2251 DEB", "OBJECT_ID": "1993-036BQU", "EPOCH": "2025-11-30T08:02:10.845600", "MEAN_MOTION": 14.59693448, "ECCENTRICITY": 0.0022468, "INCLINATION": 74.0225, "RA_OF_ASC_NODE": 190.5958, "ARG_OF_PERICENTER": 280.0722, "MEAN_ANOMALY": 79.7909, "EPHEMERIS_TYPE": 0, "CLASSIFICATION_TYPE": "U", "NORAD_CAT_ID": 37993, "ELEMENT_SET_NO": 999, "REV_AT_EPOCH": 65136, "BSTAR": 0.0012457528, "MEAN_MOTION_DOT": 5.934e-05, "MEAN_MOTION_DDOT": 0, "GROUP": "cosmos-2251-debris"}, "tle": {"line1": "1 37993U 93036BQU 25334.33484775  .00005934  00000+0  12458-2 0  9992", "line2": "2 37993  74.0225 190.5958 0022468 280.0722  79.7909 14.59693448651368"}}, "geometry": {"type": "Point", "coordinates": [-155.57652189243635, 42.85034901482721]}}, {"type": "Feature", "properties": {"norad_id": 37994, "name": "COSMOS 2251 DEB", "group": "cosmos-2251-debris", "lat": -67.03355897676911, "lon": 159.55247330601267, "alt_km": 776.1030211159587, "timestamp": "2025-12-01T03:58:49.149341+00:00", "meta": {"OBJECT_NAME": "COSMOS 2251 DEB", "OBJECT_ID": "1993-036BQV", "EPOCH": "2025-11-30T06:47:35.174400", "MEAN_MOTION": 14.39574427, "ECCENTRICITY": 0.00223384, "INCLINATION": 74.0357, "RA_OF_ASC_NODE": 298.6906, "ARG_OF_PERICENTER": 20.9109, "MEAN_ANOMALY": 339.2954, "EPHEMERIS_TYPE": 0, "CLASSIFICATION_TYPE": "U", "NORAD_CAT_ID": 37994, "ELEMENT_SET_NO": 999, "REV_AT_EPOCH": 76885, "BSTAR": 0.00040353587, "MEAN_MOTION_DOT": 1.237e-05, "MEAN_MOTION_DDOT": 0, "GROUP": "cosmos-2251-debris"}, "tle": {"line1": "1 37994U 93036BQV 25334.28304600  .00001237  00000+0  40354-3 0  9994", "line2": "2 37994  74.0357 298.6906 0022338  20.9109 339.2954 14.39574427768854"}}, "geometry": {"type": "Point", "coordinates": [159.55247330601267, -67.03355897676911]}}, {"type": "Feature", "properties": {"norad_id": 37996, "name": "COSMOS 2251 DEB", "group": "cosmos-2251-debris", "lat": -59.67549636528789, "lon": -165.6873998496775, "alt_km": 742.4811973980331, "timestamp": "2025-12-01T03:58:49.149352+00:00", "meta": {"OBJECT_NAME": "COSMOS 2251 DEB", "OBJECT_ID": "1993-036BQX", "EPOCH": "2025-11-16T18:35:00.708864", "MEAN_MOTION": 14.09591608, "ECCENTRICITY": 0.02219827, "INCLINATION": 74.0658, "RA_OF_ASC_NODE": 248.8308, "ARG_OF_PERICENTER": 5.4709, "MEAN_ANOMALY": 354.8776, "EPHEMERIS_TYPE": 0, "CLASSIFICATION_TYPE": "U", "NORAD_CAT_ID": 37996, "ELEMENT_SET_NO": 999, "REV_AT_EPOCH": 55769, "BSTAR": 0.0096790999, "MEAN_MOTION_DOT": 0.00021331, "MEAN_MOTION_DDOT": 0, "GROUP": "cosmos-2251-debris"}, "tle": {"line1": "1 37996U 93036BQX 25320.77431376  .00021331  00000+0  96791-2 0  9998", "line2": "2 37996  74.0658 248.8308 0221982   5.4709 354.8776 14.09591608557693"}}, "geometry": {"type": "Point", "coordinates": [-165.6873998496775, -59.67549636528789]}}, {"type": "Feature", "properties": {"norad_id": 37998, "name": "COSMOS 2251 DEB", "group": "cosmos-2251-debris", "lat": -73.85921066725355, "lon": 175.16316096512486, "alt_km": 740.6962776543642, "timestamp": "2025-12-01T03:58:49.149368+00:00", "meta": {"OBJECT_NAME": "COSMOS 2251 DEB", "OBJECT_ID": "1993-036BQZ", "EPOCH": "2025-11-29T12:31:01.771392", "MEAN_MOTION": 14.45395467, "ECCENTRICITY": 0.00197878, "INCLINATION": 74.0369, "RA_OF_ASC_NODE": 259.7366, "ARG_OF_PERICENTER": 336.2714, "MEAN_ANOMALY": 23.753, "EPHEMERIS_TYPE": 0, "CLASSIFICATION_TYPE": "U", "NORAD_CAT_ID": 37998, "ELEMENT_SET_NO": 999, "REV_AT_EPOCH": 64096, "BSTAR": 0.00059073677, "MEAN_MOTION_DOT": 2.057e-05, "MEAN_MOTION_DDOT": 0, "GROUP": "cosmos-2251-debris"}, "tle": {"line1": "1 37998U 93036BQZ 25333.52154828  .00002057  00000+0  59074-3 0  9999", "line2": "2 37998  74.0369 259.7366 0019787 336.2714  23.7530 14.45395467640966"}}, "geometry": {"type": "Point", "coordinates": [175.16316096512486, -73.85921066725355]}}, {"type": "Feature", "properties": {"norad_id": 38001, "name": "COSMOS 2251 DEB", "group": "cosmos-2251-debris", "lat": -73.53127889597462, "lon": 79.04559142467089, "alt_km": 601.3706235822947, "timestamp": "2025-12-01T03:58:49.149379+00:00", "meta": {"OBJECT_NAME": "COSMOS 2251 DEB", "OBJECT_ID": "1993-036BRC", "EPOCH": "2025-11-30T18:41:53.236032", "MEAN_MOTION": 14.78870093, "ECCENTRICITY": 0.0065142, "INCLINATION": 73.9992, "RA_OF_ASC_NODE": 155.8997, "ARG_OF_PERICENTER": 307.6156, "MEAN_ANOMALY": 68.485, "EPHEMERIS_TYPE": 0, "CLASSIFICATION_TYPE": "U", "NORAD_CAT_ID": 38001, "ELEMENT_SET_NO": 999, "REV_AT_EPOCH": 74531, "BSTAR": 0.00064961, "MEAN_MOTION_DOT": 4.925e-05, "MEAN_MOTION_DDOT": 0, "GROUP": "cosmos-2251-debris"}, "tle": {"line1": "1 38001U 93036BRC 25334.77908838  .00004925  00000+0  64961-3 0  9998", "line2": "2 38001  73.9992 155.8997 0065142 307.6156  68.4850 14.78870093745311"}}, "geometry": {"type": "Point", "coordinates": [79.04559142467089, -73.53127889597462]}}, {"type": "Feature", "properties": {"norad_id": 38006, "name": "COSMOS 2251 DEB", "group": "cosmos-2251-debris", "lat": 55.59817657495932, "lon": 84.90534513053962, "alt_km": 699.1640172657908, "timestamp": "2025-12-01T03:58:49.149389+00:00", "meta": {"OBJECT_NAME": "COSMOS 2251 DEB", "OBJECT_ID": "1993-036BRH", "EPOCH": "2025-11-29T23:28:28.988256", "MEAN_MOTION": 14.45505199, "ECCENTRICITY": 0.00743773, "INCLINATION": 73.846, "RA_OF_ASC_NODE": 62.1028, "ARG_OF_PERICENTER": 13.4903, "MEAN_ANOMALY": 346.8218, "EPHEMERIS_TYPE": 0, "CLASSIFICATION_TYPE": "U", "NORAD_CAT_ID": 38006, "ELEMENT_SET_NO": 999, "REV_AT_EPOCH": 62775, "BSTAR": 0.0023069114, "MEAN_MOTION_DOT": 8.398e-05, "MEAN_MOTION_DDOT": 0, "GROUP": "cosmos-2251-debris"}, "tle": {"line1": "1 38006U 93036BRH 25333.97811329  .00008398  00000+0  23069-2 0  9993", "line2": "2 38006  73.8460  62.1028 0074377  13.4903 346.8218 14.45505199627756"}}, "geometry": {"type": "Point", "coordinates": [84.90534513053962, 55.59817657495932]}}, {"type": "Feature", "properties": {"norad_id": 38054, "name": "COSMOS 2251 DEB", "group": "cosmos-2251-debris", "lat": 49.19132851314449, "lon": -55.80001715824725, "alt_km": 1244.397183908186, "timestamp": "2025-12-01T03:58:49.149399+00:00", "meta": {"OBJECT_NAME": "COSMOS 2251 DEB", "OBJECT_ID": "1993-036BRL", "EPOCH": "2025-11-26T08:10:24.945600", "MEAN_MOTION": 13.62179263, "ECCENTRICITY": 0.03616303, "INCLINATION": 73.9545, "RA_OF_ASC_NODE": 292.6204, "ARG_OF_PERICENTER": 273.8545, "MEAN_ANOMALY": 241.8921, "EPHEMERIS_TYPE": 0, "CLASSIFICATION_TYPE": "U", "NORAD_CAT_ID": 38054, "ELEMENT_SET_NO": 999, "REV_AT_EPOCH": 66956, "BSTAR": 0.0037967706, "MEAN_MOTION_DOT": 4.525e-05, "MEAN_MOTION_DDOT": 0, "GROUP": "cosmos-2251-debris"}, "tle": {"line1": "1 38054U 93036BRL 25330.34056650  .00004525  00000+0  37968-2 0  9993", "line2": "2 38054  73.9545 292.6204 0361630 273.8545 241.8921 13.62179263669562"}}, "geometry": {"type": "Point", "coordinates": [-55.80001715824725, 49.19132851314449]}}, {"type": "Feature", "properties": {"norad_id": 38055, "name": "COSMOS 2251 DEB", "group": "cosmos-2251-debris", "lat": -65.66948840230617, "lon": 88.8402594363374, "alt_km": 660.5419636362894, "timestamp": "2025-12-01T03:58:49.149409+00:00", "meta": {"OBJECT_NAME": "COSMOS 2251 DEB", "OBJECT_ID": "1993-036BRM", "EPOCH": "2025-11-30T11:23:37.489344", "MEAN_MOTION": 14.76741647, "ECCENTRICITY": 0.00655995, "INCLINATION": 74.0094, "RA_OF_ASC_NODE": 230.8354, "ARG_OF_PERICENTER": 1.0653, "MEAN_ANOMALY": 178.44, "EPHEMERIS_TYPE": 0, "CLASSIFICATION_TYPE": "U", "NORAD_CAT_ID": 38055, "ELEMENT_SET_NO": 999, "REV_AT_EPOCH": 60501, "BSTAR": 0.0010104465, "MEAN_MOTION_DOT": 7.307e-05, "MEAN_MOTION_DDOT": 0, "GROUP": "cosmos-2251-debris"}, "tle": {"line1": "1 38055U 93036BRM 25334.47473946  .00007307  00000+0  10104-2 0  9997", "line2": "2 38055  74.0094 230.8354 0065599   1.0653 178.4400 14.76741647605014"}}, "geometry": {"type": "Point", "coordinates": [88.8402594363374, -65.66948840230617]}}, {"type": "Feature", "properties": {"norad_id": 38060, "name": "COSMOS 2251 DEB", "group": "cosmos-2251-debris", "lat": -55.93810326126965, "lon": -67.51811257519613, "alt_km": 711.7154974338591, "timestamp": "2025-12-01T03:58:49.149419+00:00", "meta": {"OBJECT_NAME": "COSMOS 2251 DEB", "OBJECT_ID": "1993-036BRS", "EPOCH": "2025-11-30T16:46:11.567136", "MEAN_MOTION": 14.63742552, "ECCENTRICITY": 0.0057629, "INCLINATION": 74.0424, "RA_OF_ASC_NODE": 318.4162, "ARG_OF_PERICENTER": 67.815, "MEAN_ANOMALY": 292.9119, "EPHEMERIS_TYPE": 0, "CLASSIFICATION_TYPE": "U", "NORAD_CAT_ID": 38060, "ELEMENT_SET_NO": 999, "REV_AT_EPOCH": 71788, "BSTAR": 0.00051174, "MEAN_MOTION_DOT": 2.701e-05, "MEAN_MOTION_DDOT": 0, "GROUP": "cosmos-2251-debris"}, "tle": {"line1": "1 38060U 93036BRS 25334.69874499  .00002701  00000+0  51174-3 0  9991", "line2": "2 38060  74.0424 318.4162 0057629  67.8150 292.9119 14.63742552717884"}}, "geometry": {"type": "Point", "coordinates": [-67.51811257519613, -55.93810326126965]}}]}